[
    {
        "Altitude(m)": 607895.7807056004,
        "Argument of Periapsis(deg)": 0.0,
        "Eccentricity": 0.0,
        "Inclination(deg)": 60.0,
        "Latitude(deg)": 40.99824024118393,
        "Longitude(deg)": -79.91135622857088,
        "Mean Anomaly(deg)": -229.09089999999998,
        "RAAN(deg)": 229.99999999999997,
        "Satellite Name": "Test1 1020",
        "Satellite Number": 1020,
        "Semi-Major Axis(m)": 6980739.136638005,
        "Time(s)": 0
    },
    {
        "Altitude(m)": 607795.0936471754,
        "Argument of Periapsis(deg)": 0.00010418945913296404,
        "Eccentricity": 0.0,
        "Inclination(deg)": 60.0,
        "Latitude(deg)": 40.53056451214132,
        "Longitude(deg)": -79.41476309491416,
        "Mean Anomaly(deg)": -228.47079385453813,
        "RAAN(deg)": 229.99957995086024,
        "Satellite Name": "Test1 1020",
        "Satellite Number": 1020,
        "Semi-Major Axis(m)": 6980739.136638005,
        "Time(s)": 10
    }
]